OBJECT_NAME,OBJECT_ID,EPOCH,MEAN_MOTION,ECCENTRICITY,INCLINATION,RA_OF_ASC_NODE,ARG_OF_PERICENTER,MEAN_ANOMALY,EPHEMERIS_TYPE,CLASSIFICATION_TYPE,NORAD_CAT_ID,ELEMENT_SET_NO,REV_AT_EPOCH,BSTAR,MEAN_MOTION_DOT,MEAN_MOTION_DDOT
ONEWEB-0365,2021-090N,2026-07-11T18:01:56.537184,13.19725822,.000206,87.9193,300.0765,101.4715,258.6649,0,U,49291,999,22966,-.20876169E-3,-.71E-6,0
ONEWEB-0366,2021-090P,2026-07-11T17:13:09.424416,13.14501588,.00020627,87.8972,284.8192,98.0341,262.1022,0,U,49292,999,23078,.2737341E-3,.114E-5,0
ONEWEB-0367,2021-090Q,2026-07-11T17:00:02.348064,13.20772771,.00022342,87.9189,269.5550,102.3335,257.8048,0,U,49293,999,23306,.46508493E-4,.32E-6,0
ONEWEB-0368,2021-090R,2026-07-12T05:06:06.301152,13.20771194,.0001387,87.9171,269.4632,109.5903,250.5381,0,U,49294,999,23428,-.29004E-3,-.105E-5,0
ONEWEB-0369,2021-090S,2026-07-11T19:44:17.621952,13.19726781,.00018898,87.9183,300.0676,108.5191,251.6147,0,U,49295,999,22966,-.13092144E-4,.8E-7,0
ONEWEB-0370,2021-090T,2026-07-11T17:13:22.684224,13.20771931,.0002401,87.9189,269.5522,95.5136,264.6271,0,U,49296,999,23310,.77223225E-4,.44E-6,0
ONEWEB-0371,2021-090U,2026-07-11T19:55:39.728352,13.19723681,.00021127,87.9198,300.0600,95.0189,265.1185,0,U,49297,999,22970,-.92114047E-4,-.24E-6,0
ONEWEB-0372,2021-090V,2026-07-12T03:53:08.769120,13.20771408,.0002124,87.9186,269.4657,99.8665,260.2708,0,U,49298,999,23313,-.33318E-3,-.122E-5,0
ONEWEB-0373,2021-090W,2026-07-11T17:35:10.692096,13.20773546,.00019856,87.9178,269.5522,100.6739,259.4618,0,U,49299,999,23426,.19435545E-3,.92E-6,0
ONEWEB-0374,2021-090X,2026-07-11T18:44:29.005728,13.14502853,.00016593,87.8973,284.7982,85.9219,274.2101,0,U,49300,999,23079,.60837226E-3,.238E-5,0
ONEWEB-0375,2021-090Y,2026-07-12T04:12:45.194112,13.20772965,.000179,87.9188,269.4548,84.2563,275.8774,0,U,49301,999,23382,.16358E-3,.79E-6,0
ONEWEB-0376,2021-090Z,2026-07-11T19:53:23.371008,13.19723814,.00030689,87.9244,300.0531,74.0901,286.0569,0,U,49302,999,22970,-.27759044E-4,.2E-7,0
ONEWEB-0377,2021-090AA,2026-07-12T03:53:33.736128,13.20772913,.0001907,87.9193,269.4600,93.2603,266.8749,0,U,49303,999,23381,.55969E-4,.36E-6,0
ONEWEB-0378,2021-090AB,2026-07-11T15:39:02.282400,13.20771682,.00019619,87.9183,269.5652,96.7738,263.3619,0,U,49304,999,23301,-.29361979E-4,.1E-7,0
ONEWEB-0379,2021-090AC,2026-07-12T05:35:17.735424,13.14503045,.0001947,87.8969,284.7182,98.9041,261.2310,0,U,49305,999,23085,.62678E-3,.245E-5,0
ONEWEB-0380,2021-090AD,2026-07-11T19:48:50.933664,13.19725641,.00021439,87.9184,300.0668,81.1881,278.9495,0,U,49306,999,22967,-.3035888E-3,-.109E-5,0
ONEWEB-0381,2021-090AE,2026-07-12T03:48:29.582208,13.20773192,.0001798,87.9188,269.4656,92.4709,267.6630,0,U,49307,999,23312,.5816E-4,.37E-6,0
ONEWEB-0382,2021-090AF,2026-07-12T03:29:07.802016,13.20772481,.0001826,87.9184,269.4621,93.5969,266.5373,0,U,49308,999,23311,.3919E-3,.172E-5,0
ONEWEB-0383,2021-090AG,2026-07-12T05:26:09.733056,13.14503037,.0001856,87.8968,284.7121,102.8460,257.2877,0,U,49309,999,23088,.13753E-3,.64E-6,0
ONEWEB-0384,2021-090AH,2026-07-12T03:11:38.061024,13.20814100,.0001559,87.9177,269.5098,96.3229,263.8082,0,U,49310,999,23312,.55391E-4,.36E-6,0
ONEWEB-0385,2021-090AJ,2026-07-11T18:13:57.537408,13.20769335,.00019347,87.9187,269.5438,95.1644,264.9710,0,U,49311,999,23304,-.44066686E-3,-.166E-5,0
ONEWEB-0386,2021-090AK,2026-07-12T03:43:39.221184,13.20772988,.0001794,87.9190,269.4568,96.5980,263.5358,0,U,49312,999,23311,-.43459E-5,.11E-6,0
ONEWEB-0387,2021-090AL,2026-07-12T05:10:55.858656,13.20758908,.00025,87.9165,269.4639,95.1862,264.9557,0,U,49313,999,23312,-.67834E-3,-.263E-5,0
ONEWEB-0388,2021-090AM,2026-07-11T19:42:01.173888,13.19726113,.00018827,87.9185,300.0636,99.4311,260.7034,0,U,49314,999,22966,-.20288443E-3,-.68E-6,0
ONEWEB-0389,2021-132A,2026-07-11T11:57:31.776480,13.17650425,.00015271,87.9127,1.0300,75.3807,284.7493,0,U,50469,999,22128,-.1898329E-3,-.61E-6,0
ONEWEB-0390,2021-132B,2026-07-11T11:59:57.549696,13.17650516,.00020513,87.9138,1.0318,90.8347,269.3019,0,U,50470,999,22128,.39575846E-4,.28E-6,0
ONEWEB-0391,2021-132C,2026-07-11T12:02:23.357472,13.17650419,.00024176,87.9149,1.0430,75.8179,284.3221,0,U,50471,999,22128,-.34673399E-4,-.1E-7,0
ONEWEB-0392,2021-132D,2026-07-11T20:03:31.491360,13.17651556,.00019375,87.9152,0.9447,82.9088,277.2264,0,U,50472,999,22136,.44599401E-3,.186E-5,0
ONEWEB-0393,2021-132E,2026-07-11T21:17:38.543424,13.17647554,.0001821,87.9139,0.9505,87.5264,272.6076,0,U,50473,999,22136,-.10175E-3,-.27E-6,0
ONEWEB-0394,2021-132F,2026-07-11T20:00:44.171712,13.18684476,.0001752,87.9193,330.5413,95.2257,264.9075,0,U,50474,999,22484,-.30380927E-4,.1E-7,0
