ONEWEB-0365             
1 49291U 21090N   26192.75134881 -.00000071  00000+0 -20876-3 0  9999
2 49291  87.9193 300.0765 0002060 101.4715 258.6649 13.19725822229667
ONEWEB-0366             
1 49292U 21090P   26192.71747019  .00000114  00000+0  27373-3 0  9994
2 49292  87.8972 284.8192 0002062  98.0341 262.1022 13.14501588230789
ONEWEB-0367             
1 49293U 21090Q   26192.70836051  .00000032  00000+0  46508-4 0  9990
2 49293  87.9189 269.5550 0002234 102.3335 257.8048 13.20772771233066
ONEWEB-0368             
1 49294U 21090R   26193.21257293 -.00000105  00000+0 -29004-3 0  9997
2 49294  87.9171 269.4632 0001387 109.5903 250.5381 13.20771194234289
ONEWEB-0369             
1 49295U 21090S   26192.82242618  .00000008  00000+0 -13092-4 0  9991
2 49295  87.9183 300.0676 0001889 108.5191 251.6147 13.19726781229666
ONEWEB-0370             
1 49296U 21090T   26192.71762366  .00000044  00000+0  77223-4 0  9992
2 49296  87.9189 269.5522 0002401  95.5136 264.6271 13.20771931233102
ONEWEB-0371             
1 49297U 21090U   26192.83032093 -.00000024  00000+0 -92114-4 0  9999
2 49297  87.9198 300.0600 0002112  95.0189 265.1185 13.19723681229701
ONEWEB-0372             
1 49298U 21090V   26193.16190705 -.00000122  00000+0 -33318-3 0  9991
2 49298  87.9186 269.4657 0002124  99.8665 260.2708 13.20771408233134
ONEWEB-0373             
1 49299U 21090W   26192.73276264  .00000092  00000+0  19436-3 0  9998
2 49299  87.9178 269.5522 0001985 100.6739 259.4618 13.20773546234265
ONEWEB-0374             
1 49300U 21090X   26192.78089127  .00000238  00000+0  60837-3 0  9999
2 49300  87.8973 284.7982 0001659  85.9219 274.2101 13.14502853230795
ONEWEB-0375             
1 49301U 21090Y   26193.17552308  .00000079  00000+0  16358-3 0  9992
2 49301  87.9188 269.4548 0001790  84.2563 275.8774 13.20772965233823
ONEWEB-0376             
1 49302U 21090Z   26192.82874272  .00000002  00000+0 -27759-4 0  9996
2 49302  87.9244 300.0531 0003068  74.0901 286.0569 13.19723814229709
ONEWEB-0377             
1 49303U 21090AA  26193.16219602  .00000036  00000+0  55969-4 0  9995
2 49303  87.9193 269.4600 0001907  93.2603 266.8749 13.20772913233819
ONEWEB-0378             
1 49304U 21090AB  26192.65210975  .00000001  00000+0 -29362-4 0  9994
2 49304  87.9183 269.5652 0001961  96.7738 263.3619 13.20771682233016
ONEWEB-0379             
1 49305U 21090AC  26193.23284416  .00000245  00000+0  62678-3 0  9996
2 49305  87.8969 284.7182 0001947  98.9041 261.2310 13.14503045230853
ONEWEB-0380             
1 49306U 21090AD  26192.82558951 -.00000109  00000+0 -30359-3 0  9991
2 49306  87.9184 300.0668 0002143  81.1881 278.9495 13.19725641229670
ONEWEB-0381             
1 49307U 21090AE  26193.15867572  .00000037  00000+0  58160-4 0  9990
2 49307  87.9188 269.4656 0001798  92.4709 267.6630 13.20773192233126
ONEWEB-0382             
1 49308U 21090AF  26193.14522919  .00000172  00000+0  39190-3 0  9994
2 49308  87.9184 269.4621 0001826  93.5969 266.5373 13.20772481233118
ONEWEB-0383             
1 49309U 21090AG  26193.22650154  .00000064  00000+0  13753-3 0  9994
2 49309  87.8968 284.7121 0001856 102.8460 257.2877 13.14503037230885
ONEWEB-0384             
1 49310U 21090AH  26193.13307941  .00000036  00000+0  55391-4 0  9993
2 49310  87.9177 269.5098 0001559  96.3229 263.8082 13.20814100233128
ONEWEB-0385             
1 49311U 21090AJ  26192.75969372 -.00000166  00000+0 -44067-3 0  9996
2 49311  87.9187 269.5438 0001934  95.1644 264.9710 13.20769335233043
ONEWEB-0386             
1 49312U 21090AK  26193.15531506  .00000011  00000+0 -43459-5 0  9990
2 49312  87.9190 269.4568 0001794  96.5980 263.5358 13.20772988233112
ONEWEB-0387             
1 49313U 21090AL  26193.21592429 -.00000263  00000+0 -67834-3 0  9990
2 49313  87.9165 269.4639 0002500  95.1862 264.9557 13.20758908233127
ONEWEB-0388             
1 49314U 21090AM  26192.82084692 -.00000068  00000+0 -20288-3 0  9990
2 49314  87.9185 300.0636 0001882  99.4311 260.7034 13.19726113229666
ONEWEB-0389             
1 50469U 21132A   26192.49828445 -.00000061  00000+0 -18983-3 0  9997
2 50469  87.9127   1.0300 0001527  75.3807 284.7493 13.17650425221285
ONEWEB-0390             
1 50470U 21132B   26192.49997164  .00000028  00000+0  39576-4 0  9997
2 50470  87.9138   1.0318 0002051  90.8347 269.3019 13.17650516221286
ONEWEB-0391             
1 50471U 21132C   26192.50165923 -.00000001  00000+0 -34673-4 0  9996
2 50471  87.9149   1.0430 0002417  75.8179 284.3221 13.17650419221280
ONEWEB-0392             
1 50472U 21132D   26192.83578115  .00000186  00000+0  44599-3 0  9993
2 50472  87.9152   0.9447 0001937  82.9088 277.2264 13.17651556221365
ONEWEB-0393             
1 50473U 21132E   26192.88725166 -.00000027  00000+0 -10175-3 0  9998
2 50473  87.9139   0.9505 0001821  87.5264 272.6076 13.17647554221368
ONEWEB-0394             
1 50474U 21132F   26192.83384458  .00000001  00000+0 -30381-4 0  9992
2 50474  87.9193 330.5413 0001752  95.2257 264.9075 13.18684476224844
